[{"OBJECT_NAME":"ONEWEB-0527","OBJECT_ID":"2022-166A","EPOCH":"2025-12-29T03:45:30.311712","MEAN_MOTION":13.21825861,"ECCENTRICITY":0.00016571,"INCLINATION":87.9228,"RA_OF_ASC_NODE":277.9148,"ARG_OF_PERICENTER":74.7962,"MEAN_ANOMALY":285.3356,"EPHEMERIS_TYPE":0,"CLASSIFICATION_TYPE":"U","NORAD_CAT_ID":54642,"ELEMENT_SET_NO":999,"REV_AT_EPOCH":14907,"BSTAR":-1.0621723e-5,"MEAN_MOTION_DOT":9.0e-8,"MEAN_MOTION_DDOT":0},{"OBJECT_NAME":"ONEWEB-0528","OBJECT_ID":"2022-166B","EPOCH":"2025-12-29T05:43:59.886048","MEAN_MOTION":13.21826087,"ECCENTRICITY":0.0001683,"INCLINATION":87.9226,"RA_OF_ASC_NODE":277.9022,"ARG_OF_PERICENTER":71.3282,"MEAN_ANOMALY":288.8035,"EPHEMERIS_TYPE":0,"CLASSIFICATION_TYPE":"U","NORAD_CAT_ID":54643,"ELEMENT_SET_NO":999,"REV_AT_EPOCH":14909,"BSTAR":8.0408e-5,"MEAN_MOTION_DOT":4.6e-7,"MEAN_MOTION_DDOT":0},{"OBJECT_NAME":"ONEWEB-0539","OBJECT_ID":"2022-166C","EPOCH":"2025-12-29T06:38:28.392864","MEAN_MOTION":13.21827915,"ECCENTRICITY":0.0001905,"INCLINATION":87.9225,"RA_OF_ASC_NODE":277.8601,"ARG_OF_PERICENTER":73.7441,"MEAN_ANOMALY":286.3903,"EPHEMERIS_TYPE":0,"CLASSIFICATION_TYPE":"U","NORAD_CAT_ID":54644,"ELEMENT_SET_NO":999,"REV_AT_EPOCH":14909,"BSTAR":0.00016191,"MEAN_MOTION_DOT":8.0e-7,"MEAN_MOTION_DDOT":0},{"OBJECT_NAME":"ONEWEB-0540","OBJECT_ID":"2022-166D","EPOCH":"2025-12-29T04:59:10.278240","MEAN_MOTION":13.21826165,"ECCENTRICITY":0.000181,"INCLINATION":87.9221,"RA_OF_ASC_NODE":277.9115,"ARG_OF_PERICENTER":78.4515,"MEAN_ANOMALY":281.6822,"EPHEMERIS_TYPE":0,"CLASSIFICATION_TYPE":"U","NORAD_CAT_ID":54645,"ELEMENT_SET_NO":999,"REV_AT_EPOCH":14907,"BSTAR":0.00015645,"MEAN_MOTION_DOT":7.8e-7,"MEAN_MOTION_DDOT":0},{"OBJECT_NAME":"ONEWEB-0542","OBJECT_ID":"2022-166E","EPOCH":"2025-12-29T05:03:42.376896","MEAN_MOTION":13.21827767,"ECCENTRICITY":0.0002059,"INCLINATION":87.9222,"RA_OF_ASC_NODE":277.8691,"ARG_OF_PERICENTER":79.9935,"MEAN_ANOMALY":280.1431,"EPHEMERIS_TYPE":0,"CLASSIFICATION_TYPE":"U","NORAD_CAT_ID":54646,"ELEMENT_SET_NO":999,"REV_AT_EPOCH":14908,"BSTAR":-1.3153e-6,"MEAN_MOTION_DOT":1.2e-7,"MEAN_MOTION_DDOT":0},{"OBJECT_NAME":"ONEWEB-0545","OBJECT_ID":"2022-166F","EPOCH":"2025-12-29T07:51:55.465056","MEAN_MOTION":13.21828353,"ECCENTRICITY":0.0002125,"INCLINATION":87.9225,"RA_OF_ASC_NODE":277.8671,"ARG_OF_PERICENTER":79.0507,"MEAN_ANOMALY":281.0866,"EPHEMERIS_TYPE":0,"CLASSIFICATION_TYPE":"U","NORAD_CAT_ID":54647,"ELEMENT_SET_NO":999,"REV_AT_EPOCH":14906,"BSTAR":7.9448e-5,"MEAN_MOTION_DOT":4.6e-7,"MEAN_MOTION_DDOT":0},{"OBJECT_NAME":"ONEWEB-0580","OBJECT_ID":"2022-166G","EPOCH":"2025-12-29T07:14:02.210208","MEAN_MOTION":13.21827109,"ECCENTRICITY":0.0001968,"INCLINATION":87.9227,"RA_OF_ASC_NODE":277.8714,"ARG_OF_PERICENTER":82.7176,"MEAN_ANOMALY":277.4182,"EPHEMERIS_TYPE":0,"CLASSIFICATION_TYPE":"U","NORAD_CAT_ID":54648,"ELEMENT_SET_NO":999,"REV_AT_EPOCH":14910,"BSTAR":-0.00023209,"MEAN_MOTION_DOT":-8.3e-7,"MEAN_MOTION_DDOT":0},{"OBJECT_NAME":"ONEWEB-0582","OBJECT_ID":"2022-166H","EPOCH":"2025-12-29T06:26:38.374080","MEAN_MOTION":13.21827855,"ECCENTRICITY":0.0002174,"INCLINATION":87.9228,"RA_OF_ASC_NODE":277.8712,"ARG_OF_PERICENTER":82.408,"MEAN_ANOMALY":277.7301,"EPHEMERIS_TYPE":0,"CLASSIFICATION_TYPE":"U","NORAD_CAT_ID":54649,"ELEMENT_SET_NO":999,"REV_AT_EPOCH":14907,"BSTAR":-0.00026031,"MEAN_MOTION_DOT":-9.4e-7,"MEAN_MOTION_DDOT":0},{"OBJECT_NAME":"ONEWEB-0583","OBJECT_ID":"2022-166J","EPOCH":"2025-12-29T04:54:13.470912","MEAN_MOTION":13.21827759,"ECCENTRICITY":0.0001798,"INCLINATION":87.9225,"RA_OF_ASC_NODE":277.9081,"ARG_OF_PERICENTER":74.6331,"MEAN_ANOMALY":285.5001,"EPHEMERIS_TYPE":0,"CLASSIFICATION_TYPE":"U","NORAD_CAT_ID":54650,"ELEMENT_SET_NO":999,"REV_AT_EPOCH":14907,"BSTAR":0.00025561,"MEAN_MOTION_DOT":1.19e-6,"MEAN_MOTION_DDOT":0},{"OBJECT_NAME":"ONEWEB-0584","OBJECT_ID":"2022-166K","EPOCH":"2025-12-29T07:11:39.980256","MEAN_MOTION":13.21826367,"ECCENTRICITY":0.000191,"INCLINATION":87.9229,"RA_OF_ASC_NODE":277.8757,"ARG_OF_PERICENTER":85.0574,"MEAN_ANOMALY":275.0778,"EPHEMERIS_TYPE":0,"CLASSIFICATION_TYPE":"U","NORAD_CAT_ID":54651,"ELEMENT_SET_NO":999,"REV_AT_EPOCH":14907,"BSTAR":-3.7095e-5,"MEAN_MOTION_DOT":-2.0e-8,"MEAN_MOTION_DDOT":0},{"OBJECT_NAME":"ONEWEB-0585","OBJECT_ID":"2022-166L","EPOCH":"2025-12-29T07:47:13.079616","MEAN_MOTION":13.21825547,"ECCENTRICITY":0.0001605,"INCLINATION":87.9231,"RA_OF_ASC_NODE":277.8558,"ARG_OF_PERICENTER":75.479,"MEAN_ANOMALY":284.6522,"EPHEMERIS_TYPE":0,"CLASSIFICATION_TYPE":"U","NORAD_CAT_ID":54652,"ELEMENT_SET_NO":999,"REV_AT_EPOCH":14908,"BSTAR":-0.00017182,"MEAN_MOTION_DOT":-5.8e-7,"MEAN_MOTION_DDOT":0},{"OBJECT_NAME":"ONEWEB-0586","OBJECT_ID":"2022-166M","EPOCH":"2025-12-29T06:17:10.657824","MEAN_MOTION":13.21826121,"ECCENTRICITY":0.0001893,"INCLINATION":87.9227,"RA_OF_ASC_NODE":277.8932,"ARG_OF_PERICENTER":76.9513,"MEAN_ANOMALY":283.1832,"EPHEMERIS_TYPE":0,"CLASSIFICATION_TYPE":"U","NORAD_CAT_ID":54653,"ELEMENT_SET_NO":999,"REV_AT_EPOCH":14907,"BSTAR":8.1853e-5,"MEAN_MOTION_DOT":4.7e-7,"MEAN_MOTION_DDOT":0},{"OBJECT_NAME":"ONEWEB-0587","OBJECT_ID":"2022-166N","EPOCH":"2025-12-29T04:42:22.189824","MEAN_MOTION":13.21828056,"ECCENTRICITY":0.0001328,"INCLINATION":87.9236,"RA_OF_ASC_NODE":277.8637,"ARG_OF_PERICENTER":68.147,"MEAN_ANOMALY":291.9805,"EPHEMERIS_TYPE":0,"CLASSIFICATION_TYPE":"U","NORAD_CAT_ID":54654,"ELEMENT_SET_NO":999,"REV_AT_EPOCH":14922,"BSTAR":0.0002135,"MEAN_MOTION_DOT":1.01e-6,"MEAN_MOTION_DDOT":0},{"OBJECT_NAME":"ONEWEB-0589","OBJECT_ID":"2022-166P","EPOCH":"2025-12-29T04:23:24.016704","MEAN_MOTION":13.21828731,"ECCENTRICITY":0.0002346,"INCLINATION":87.9223,"RA_OF_ASC_NODE":277.899,"ARG_OF_PERICENTER":91.2184,"MEAN_ANOMALY":268.9219,"EPHEMERIS_TYPE":0,"CLASSIFICATION_TYPE":"U","NORAD_CAT_ID":54655,"ELEMENT_SET_NO":999,"REV_AT_EPOCH":14908,"BSTAR":0.00020175,"MEAN_MOTION_DOT":9.6e-7,"MEAN_MOTION_DDOT":0},{"OBJECT_NAME":"ONEWEB-0590","OBJECT_ID":"2022-166Q","EPOCH":"2025-12-29T04:58:45.480576","MEAN_MOTION":13.2182802,"ECCENTRICITY":0.0001403,"INCLINATION":87.9225,"RA_OF_ASC_NODE":277.8716,"ARG_OF_PERICENTER":88.2731,"MEAN_ANOMALY":271.8564,"EPHEMERIS_TYPE":0,"CLASSIFICATION_TYPE":"U","NORAD_CAT_ID":54656,"ELEMENT_SET_NO":999,"REV_AT_EPOCH":14907,"BSTAR":7.254e-5,"MEAN_MOTION_DOT":4.3e-7,"MEAN_MOTION_DDOT":0},{"OBJECT_NAME":"ONEWEB-0591","OBJECT_ID":"2022-166R","EPOCH":"2025-12-29T07:04:33.559104","MEAN_MOTION":13.21826256,"ECCENTRICITY":0.0001717,"INCLINATION":87.9225,"RA_OF_ASC_NODE":277.8776,"ARG_OF_PERICENTER":79.6376,"MEAN_ANOMALY":280.4952,"EPHEMERIS_TYPE":0,"CLASSIFICATION_TYPE":"U","NORAD_CAT_ID":54657,"ELEMENT_SET_NO":999,"REV_AT_EPOCH":14911,"BSTAR":-5.4571e-5,"MEAN_MOTION_DOT":-1.0e-7,"MEAN_MOTION_DDOT":0},{"OBJECT_NAME":"ONEWEB-0592","OBJECT_ID":"2022-166S","EPOCH":"2025-12-29T03:31:17.331168","MEAN_MOTION":13.21827285,"ECCENTRICITY":0.00017087,"INCLINATION":87.9237,"RA_OF_ASC_NODE":277.8712,"ARG_OF_PERICENTER":77.3487,"MEAN_ANOMALY":282.7838,"EPHEMERIS_TYPE":0,"CLASSIFICATION_TYPE":"U","NORAD_CAT_ID":54658,"ELEMENT_SET_NO":999,"REV_AT_EPOCH":14897,"BSTAR":1.3203856e-5,"MEAN_MOTION_DOT":1.8e-7,"MEAN_MOTION_DDOT":0}]
