ONEWEB-0527             
1 54642U 22166A   25363.15660083  .00000009  00000+0 -10622-4 0  9990
2 54642  87.9228 277.9148 0001657  74.7962 285.3356 13.21825861149071
ONEWEB-0528             
1 54643U 22166B   25363.23888757  .00000046  00000+0  80408-4 0  9999
2 54643  87.9226 277.9022 0001683  71.3282 288.8035 13.21826087149093
ONEWEB-0539             
1 54644U 22166C   25363.27671751  .00000080  00000+0  16191-3 0  9993
2 54644  87.9225 277.8601 0001905  73.7441 286.3903 13.21827915149093
ONEWEB-0540             
1 54645U 22166D   25363.20775785  .00000078  00000+0  15645-3 0  9999
2 54645  87.9221 277.9115 0001810  78.4515 281.6822 13.21826165149072
ONEWEB-0542             
1 54646U 22166E   25363.21090714  .00000012  00000+0 -13153-5 0  9996
2 54646  87.9222 277.8691 0002059  79.9935 280.1431 13.21827767149080
ONEWEB-0545             
1 54647U 22166F   25363.32772529  .00000046  00000+0  79448-4 0  9994
2 54647  87.9225 277.8671 0002125  79.0507 281.0866 13.21828353149064
ONEWEB-0580             
1 54648U 22166G   25363.30141447 -.00000083  00000+0 -23209-3 0  9998
2 54648  87.9227 277.8714 0001968  82.7176 277.4182 13.21827109149105
ONEWEB-0582             
1 54649U 22166H   25363.26849970 -.00000094  00000+0 -26031-3 0  9998
2 54649  87.9228 277.8712 0002174  82.4080 277.7301 13.21827855149076
ONEWEB-0583             
1 54650U 22166J   25363.20432258  .00000119  00000+0  25561-3 0  9994
2 54650  87.9225 277.9081 0001798  74.6331 285.5001 13.21827759149075
ONEWEB-0584             
1 54651U 22166K   25363.29976829 -.00000002  00000+0 -37095-4 0  9990
2 54651  87.9229 277.8757 0001910  85.0574 275.0778 13.21826367149079
ONEWEB-0585             
1 54652U 22166L   25363.32445694 -.00000058  00000+0 -17182-3 0  9991
2 54652  87.9231 277.8558 0001605  75.4790 284.6522 13.21825547149089
ONEWEB-0586             
1 54653U 22166M   25363.26192891  .00000047  00000+0  81853-4 0  9996
2 54653  87.9227 277.8932 0001893  76.9513 283.1832 13.21826121149075
ONEWEB-0587             
1 54654U 22166N   25363.19609016  .00000101  00000+0  21350-3 0  9997
2 54654  87.9236 277.8637 0001328  68.1470 291.9805 13.21828056149229
ONEWEB-0589             
1 54655U 22166P   25363.18291686  .00000096  00000+0  20175-3 0  9994
2 54655  87.9223 277.8990 0002346  91.2184 268.9219 13.21828731149085
ONEWEB-0590             
1 54656U 22166Q   25363.20747084  .00000043  00000+0  72540-4 0  9992
2 54656  87.9225 277.8716 0001403  88.2731 271.8564 13.21828020149077
ONEWEB-0591             
1 54657U 22166R   25363.29483286 -.00000010  00000+0 -54571-4 0  9993
2 54657  87.9225 277.8776 0001717  79.6376 280.4952 13.21826256149112
ONEWEB-0592             
1 54658U 22166S   25363.14672837  .00000018  00000+0  13204-4 0  9994
2 54658  87.9237 277.8712 0001708  77.3487 282.7838 13.21827285148978
